[{"OBJECT_NAME":"SHIYAN-23 (SY-23)","OBJECT_ID":"2024-089A","EPOCH":"2026-03-09T17:48:57.331872","MEAN_MOTION":14.86904923,"ECCENTRICITY":0.0004099,"INCLINATION":97.778,"RA_OF_ASC_NODE":72.5746,"ARG_OF_PERICENTER":142.8703,"MEAN_ANOMALY":217.2797,"EPHEMERIS_TYPE":0,"CLASSIFICATION_TYPE":"U","NORAD_CAT_ID":59728,"ELEMENT_SET_NO":999,"REV_AT_EPOCH":9906,"BSTAR":9.2631e-5,"MEAN_MOTION_DOT":7.74e-6,"MEAN_MOTION_DDOT":0},{"OBJECT_NAME":"FENGYUN 1C DEB","OBJECT_ID":"1999-025AME","EPOCH":"2026-03-09T23:44:06.734976","MEAN_MOTION":14.20090364,"ECCENTRICITY":0.03026122,"INCLINATION":98.6019,"RA_OF_ASC_NODE":83.3219,"ARG_OF_PERICENTER":92.0132,"MEAN_ANOMALY":271.5725,"EPHEMERIS_TYPE":0,"CLASSIFICATION_TYPE":"U","NORAD_CAT_ID":30599,"ELEMENT_SET_NO":999,"REV_AT_EPOCH":98405,"BSTAR":0.00076781647,"MEAN_MOTION_DOT":2.548e-5,"MEAN_MOTION_DDOT":0}]
